WILDTRACKCUBE-SIMBA     
1 47941U 21022K   26063.01670612  .02462535  24181-5  14346-2 0  9990
2 47941  97.3796 344.8724 0005932 133.3640 226.8143 16.18785701274934
GREENCUBE (IO-117)      
1 53109U 22080E   26061.72898270 -.00000003  00000+0  00000+0 0  9990
2 53109  70.1617 335.2737 0009043 313.3588  46.6318  6.42583122 85227
SITRO-AIS 5 (KATYS)     
1 57176U 23091L   26063.10994508  .00020041  00000+0  75859-3 0  9997
2 57176  97.5192 126.1426 0013424 112.7782 247.4877 15.26883198148299
SITRO-AIS 6 (CHIRKIN)   
1 57192U 23091AC  26063.19989090  .00011637  00000+0  47745-3 0  9998
2 57192  97.5196 125.8504 0014150 112.6465 247.6270 15.24306255148288
SITRO-AIS 8 (ANOKHIN)   
1 57193U 23091AD  26063.16574554  .00023566  00000+0  83242-3 0  9997
2 57193  97.5183 127.3967 0012654 110.3527 249.9074 15.29134724148389
SITRO-AIS 7 (FARTUSHNIY)
1 57194U 23091AE  26063.18353824  .00009850  00000+0  40762-3 0  9995
2 57194  97.5195 125.7074 0013996 113.6254 246.6454 15.24063696148275
SITRO-AIS 10 (BURDAEV)  
1 57199U 23091AK  26063.21022624  .00031246  00000+0  93473-3 0  9996
2 57199  97.5198 131.5126 0008429  91.7581 268.4627 15.34464665148647
SITRO-AIS 9 (SHCHUKIN)  
1 57201U 23091AM  26063.20712459  .00032258  00000+0  97589-3 0  9997
2 57201  97.5196 131.3119 0008615  91.6499 268.5730 15.34100802148638
SITRO-AIS 12 (SMIRENNIY)
1 57204U 23091AQ  26063.21630250  .00030103  00000+0  90414-3 0  9996
2 57204  97.5207 131.7273 0008298  86.8485 273.3707 15.34346643148652
SITRO-AIS 11 (SHEFFER)  
1 57208U 23091AU  26063.19070084  .00031208  00000+0  92730-3 0  9990
2 57208  97.5205 131.8886 0008195  87.0706 273.1474 15.34680160148665
SITRO-AIS 25            
1 59066U 24039R   26063.22272767  .00005985  00000+0  47551-3 0  9997
2 59066  95.3946 162.9952 0145976 335.6220  23.8145 14.92575316109063
SITRO-AIS 26            
1 59067U 24039S   26063.21044003  .00006026  00000+0  48077-3 0  9998
2 59067  95.3945 162.9050 0146286 336.0978  23.3499 14.92388029109051
SITRO-AIS 27            
1 59068U 24039T   26063.20923528  .00005886  00000+0  46586-3 0  9992
2 59068  95.3945 163.1290 0145396 334.9269  24.4941 14.92782454109078
SITRO-AIS 28            
1 59071U 24039U   26063.18909939  .00005294  00000+0  41901-3 0  9992
2 59071  95.3946 163.1571 0145357 334.8507  24.5685 14.92815289109075
GRBBETA                 
1 60237U 24128C   26062.92972353  .00008804  00000+0  60156-3 0  9991
2 60237  61.9890 225.3190 0051975 113.0437 247.6148 15.05705013 90414
OOV-CUBE (TUBSAT-30)    
1 60240U 24128F   26063.03822873  .00005107  00000+0  38902-3 0  9996
2 60240  61.9937 232.0752 0054992 111.2238 249.4739 15.02197966 90314
