[{"OBJECT_NAME":"WILDTRACKCUBE-SIMBA","OBJECT_ID":"2021-022K","EPOCH":"2026-03-04T00:24:03.408768","MEAN_MOTION":16.18785701,"ECCENTRICITY":0.0005932,"INCLINATION":97.3796,"RA_OF_ASC_NODE":344.8724,"ARG_OF_PERICENTER":133.364,"MEAN_ANOMALY":226.8143,"EPHEMERIS_TYPE":0,"CLASSIFICATION_TYPE":"U","NORAD_CAT_ID":47941,"ELEMENT_SET_NO":999,"REV_AT_EPOCH":27493,"BSTAR":0.0014346,"MEAN_MOTION_DOT":0.02462535,"MEAN_MOTION_DDOT":2.4181e-6},{"OBJECT_NAME":"GREENCUBE (IO-117)","OBJECT_ID":"2022-080E","EPOCH":"2026-03-02T17:29:44.105280","MEAN_MOTION":6.42583122,"ECCENTRICITY":0.00090439,"INCLINATION":70.1617,"RA_OF_ASC_NODE":335.2737,"ARG_OF_PERICENTER":313.3588,"MEAN_ANOMALY":46.6318,"EPHEMERIS_TYPE":0,"CLASSIFICATION_TYPE":"U","NORAD_CAT_ID":53109,"ELEMENT_SET_NO":999,"REV_AT_EPOCH":8522,"BSTAR":0,"MEAN_MOTION_DOT":-3.0e-8,"MEAN_MOTION_DDOT":0},{"OBJECT_NAME":"SITRO-AIS 5 (KATYS)","OBJECT_ID":"2023-091L","EPOCH":"2026-03-04T02:38:19.254912","MEAN_MOTION":15.26883198,"ECCENTRICITY":0.0013424,"INCLINATION":97.5192,"RA_OF_ASC_NODE":126.1426,"ARG_OF_PERICENTER":112.7782,"MEAN_ANOMALY":247.4877,"EPHEMERIS_TYPE":0,"CLASSIFICATION_TYPE":"U","NORAD_CAT_ID":57176,"ELEMENT_SET_NO":999,"REV_AT_EPOCH":14829,"BSTAR":0.00075859,"MEAN_MOTION_DOT":0.00020041,"MEAN_MOTION_DDOT":0},{"OBJECT_NAME":"SITRO-AIS 6 (CHIRKIN)","OBJECT_ID":"2023-091AC","EPOCH":"2026-03-04T04:47:50.573760","MEAN_MOTION":15.24306255,"ECCENTRICITY":0.001415,"INCLINATION":97.5196,"RA_OF_ASC_NODE":125.8504,"ARG_OF_PERICENTER":112.6465,"MEAN_ANOMALY":247.627,"EPHEMERIS_TYPE":0,"CLASSIFICATION_TYPE":"U","NORAD_CAT_ID":57192,"ELEMENT_SET_NO":999,"REV_AT_EPOCH":14828,"BSTAR":0.00047745,"MEAN_MOTION_DOT":0.00011637,"MEAN_MOTION_DDOT":0},{"OBJECT_NAME":"SITRO-AIS 8 (ANOKHIN)","OBJECT_ID":"2023-091AD","EPOCH":"2026-03-04T03:58:40.414656","MEAN_MOTION":15.29134724,"ECCENTRICITY":0.0012654,"INCLINATION":97.5183,"RA_OF_ASC_NODE":127.3967,"ARG_OF_PERICENTER":110.3527,"MEAN_ANOMALY":249.9074,"EPHEMERIS_TYPE":0,"CLASSIFICATION_TYPE":"U","NORAD_CAT_ID":57193,"ELEMENT_SET_NO":999,"REV_AT_EPOCH":14838,"BSTAR":0.00083242,"MEAN_MOTION_DOT":0.00023566,"MEAN_MOTION_DDOT":0},{"OBJECT_NAME":"SITRO-AIS 7 (FARTUSHNIY)","OBJECT_ID":"2023-091AE","EPOCH":"2026-03-04T04:24:17.703936","MEAN_MOTION":15.24063696,"ECCENTRICITY":0.0013996,"INCLINATION":97.5195,"RA_OF_ASC_NODE":125.7074,"ARG_OF_PERICENTER":113.6254,"MEAN_ANOMALY":246.6454,"EPHEMERIS_TYPE":0,"CLASSIFICATION_TYPE":"U","NORAD_CAT_ID":57194,"ELEMENT_SET_NO":999,"REV_AT_EPOCH":14827,"BSTAR":0.00040762,"MEAN_MOTION_DOT":9.85e-5,"MEAN_MOTION_DDOT":0},{"OBJECT_NAME":"SITRO-AIS 10 (BURDAEV)","OBJECT_ID":"2023-091AK","EPOCH":"2026-03-04T05:02:43.547136","MEAN_MOTION":15.34464665,"ECCENTRICITY":0.0008429,"INCLINATION":97.5198,"RA_OF_ASC_NODE":131.5126,"ARG_OF_PERICENTER":91.7581,"MEAN_ANOMALY":268.4627,"EPHEMERIS_TYPE":0,"CLASSIFICATION_TYPE":"U","NORAD_CAT_ID":57199,"ELEMENT_SET_NO":999,"REV_AT_EPOCH":14864,"BSTAR":0.00093473,"MEAN_MOTION_DOT":0.00031246,"MEAN_MOTION_DDOT":0},{"OBJECT_NAME":"SITRO-AIS 9 (SHCHUKIN)","OBJECT_ID":"2023-091AM","EPOCH":"2026-03-04T04:58:15.564576","MEAN_MOTION":15.34100802,"ECCENTRICITY":0.0008615,"INCLINATION":97.5196,"RA_OF_ASC_NODE":131.3119,"ARG_OF_PERICENTER":91.6499,"MEAN_ANOMALY":268.573,"EPHEMERIS_TYPE":0,"CLASSIFICATION_TYPE":"U","NORAD_CAT_ID":57201,"ELEMENT_SET_NO":999,"REV_AT_EPOCH":14863,"BSTAR":0.00097589,"MEAN_MOTION_DOT":0.00032258,"MEAN_MOTION_DDOT":0},{"OBJECT_NAME":"SITRO-AIS 12 (SMIRENNIY)","OBJECT_ID":"2023-091AQ","EPOCH":"2026-03-04T05:11:28.536000","MEAN_MOTION":15.34346643,"ECCENTRICITY":0.0008298,"INCLINATION":97.5207,"RA_OF_ASC_NODE":131.7273,"ARG_OF_PERICENTER":86.8485,"MEAN_ANOMALY":273.3707,"EPHEMERIS_TYPE":0,"CLASSIFICATION_TYPE":"U","NORAD_CAT_ID":57204,"ELEMENT_SET_NO":999,"REV_AT_EPOCH":14865,"BSTAR":0.00090414,"MEAN_MOTION_DOT":0.00030103,"MEAN_MOTION_DDOT":0},{"OBJECT_NAME":"SITRO-AIS 11 (SHEFFER)","OBJECT_ID":"2023-091AU","EPOCH":"2026-03-04T04:34:36.552576","MEAN_MOTION":15.3468016,"ECCENTRICITY":0.0008195,"INCLINATION":97.5205,"RA_OF_ASC_NODE":131.8886,"ARG_OF_PERICENTER":87.0706,"MEAN_ANOMALY":273.1474,"EPHEMERIS_TYPE":0,"CLASSIFICATION_TYPE":"U","NORAD_CAT_ID":57208,"ELEMENT_SET_NO":999,"REV_AT_EPOCH":14866,"BSTAR":0.0009273,"MEAN_MOTION_DOT":0.00031208,"MEAN_MOTION_DDOT":0},{"OBJECT_NAME":"SITRO-AIS 25","OBJECT_ID":"2024-039R","EPOCH":"2026-03-04T05:20:43.670688","MEAN_MOTION":14.92575316,"ECCENTRICITY":0.0145976,"INCLINATION":95.3946,"RA_OF_ASC_NODE":162.9952,"ARG_OF_PERICENTER":335.622,"MEAN_ANOMALY":23.8145,"EPHEMERIS_TYPE":0,"CLASSIFICATION_TYPE":"U","NORAD_CAT_ID":59066,"ELEMENT_SET_NO":999,"REV_AT_EPOCH":10906,"BSTAR":0.00047551,"MEAN_MOTION_DOT":5.985e-5,"MEAN_MOTION_DDOT":0},{"OBJECT_NAME":"SITRO-AIS 26","OBJECT_ID":"2024-039S","EPOCH":"2026-03-04T05:03:02.018592","MEAN_MOTION":14.92388029,"ECCENTRICITY":0.0146286,"INCLINATION":95.3945,"RA_OF_ASC_NODE":162.905,"ARG_OF_PERICENTER":336.0978,"MEAN_ANOMALY":23.3499,"EPHEMERIS_TYPE":0,"CLASSIFICATION_TYPE":"U","NORAD_CAT_ID":59067,"ELEMENT_SET_NO":999,"REV_AT_EPOCH":10905,"BSTAR":0.00048077,"MEAN_MOTION_DOT":6.026e-5,"MEAN_MOTION_DDOT":0},{"OBJECT_NAME":"SITRO-AIS 27","OBJECT_ID":"2024-039T","EPOCH":"2026-03-04T05:01:17.928192","MEAN_MOTION":14.92782454,"ECCENTRICITY":0.0145396,"INCLINATION":95.3945,"RA_OF_ASC_NODE":163.129,"ARG_OF_PERICENTER":334.9269,"MEAN_ANOMALY":24.4941,"EPHEMERIS_TYPE":0,"CLASSIFICATION_TYPE":"U","NORAD_CAT_ID":59068,"ELEMENT_SET_NO":999,"REV_AT_EPOCH":10907,"BSTAR":0.00046586,"MEAN_MOTION_DOT":5.886e-5,"MEAN_MOTION_DDOT":0},{"OBJECT_NAME":"SITRO-AIS 28","OBJECT_ID":"2024-039U","EPOCH":"2026-03-04T04:32:18.187296","MEAN_MOTION":14.92815289,"ECCENTRICITY":0.0145357,"INCLINATION":95.3946,"RA_OF_ASC_NODE":163.1571,"ARG_OF_PERICENTER":334.8507,"MEAN_ANOMALY":24.5685,"EPHEMERIS_TYPE":0,"CLASSIFICATION_TYPE":"U","NORAD_CAT_ID":59071,"ELEMENT_SET_NO":999,"REV_AT_EPOCH":10907,"BSTAR":0.00041901,"MEAN_MOTION_DOT":5.294e-5,"MEAN_MOTION_DDOT":0},{"OBJECT_NAME":"GRBBETA","OBJECT_ID":"2024-128C","EPOCH":"2026-03-03T22:18:48.112992","MEAN_MOTION":15.05705013,"ECCENTRICITY":0.0051975,"INCLINATION":61.989,"RA_OF_ASC_NODE":225.319,"ARG_OF_PERICENTER":113.0437,"MEAN_ANOMALY":247.6148,"EPHEMERIS_TYPE":0,"CLASSIFICATION_TYPE":"U","NORAD_CAT_ID":60237,"ELEMENT_SET_NO":999,"REV_AT_EPOCH":9041,"BSTAR":0.00060156,"MEAN_MOTION_DOT":8.804e-5,"MEAN_MOTION_DDOT":0},{"OBJECT_NAME":"OOV-CUBE (TUBSAT-30)","OBJECT_ID":"2024-128F","EPOCH":"2026-03-04T00:55:02.962272","MEAN_MOTION":15.02197966,"ECCENTRICITY":0.0054992,"INCLINATION":61.9937,"RA_OF_ASC_NODE":232.0752,"ARG_OF_PERICENTER":111.2238,"MEAN_ANOMALY":249.4739,"EPHEMERIS_TYPE":0,"CLASSIFICATION_TYPE":"U","NORAD_CAT_ID":60240,"ELEMENT_SET_NO":999,"REV_AT_EPOCH":9031,"BSTAR":0.00038902,"MEAN_MOTION_DOT":5.107e-5,"MEAN_MOTION_DDOT":0}]
